start=new Date('2023-06-06T00:00:00.000Z').valueOf();
sats=[{"RCS_SIZE":"LARGE","LAUNCH_DATE":"2022-03-09","CLASSIFICATION_TYPE":"U","MEAN_MOTION_DOT":"-0.00000150","INCLINATION":"53.0793","CENTER_NAME":"EARTH","GP_ID":"233285686","RA_OF_ASC_NODE":"235.8524","ELEMENT_SET_NO":"999","EPOCH":"2023-06-05T15:38:09.628512","MEAN_MOTION":"15.05582419","ARG_OF_PERICENTER":"58.7026","DECAY_DATE":null,"TIME_SYSTEM":"UTC","TLE_LINE2":"2 51972  53.0793 235.8524 0001273  58.7026 301.4088 15.05582419 68999","MEAN_ELEMENT_THEORY":"SGP4","REF_FRAME":"TEME","EPHEMERIS_TYPE":"0","FILE":"3925751","OBJECT_TYPE":"PAYLOAD","PERIAPSIS":"548.839","REV_AT_EPOCH":"6899","BSTAR":"0.00000887340000","MEAN_ANOMALY":"301.4088","SEMIMAJOR_AXIS":"6927.855","MEAN_MOTION_DDOT":"0.0000000000000","OBJECT_NAME":"STARLINK-3671","SITE":"AFETR","NORAD_CAT_ID":"51972","OBJECT_ID":"2022-025S","COUNTRY_CODE":"US","PERIOD":"95.644","APOAPSIS":"550.602","ECCENTRICITY":"0.00012730","TLE_LINE1":"1 51972U 22025S   23156.65150033 -.00000150  00000-0  88734-5 0  9997"},{"APOAPSIS":"550.389","PERIOD":"95.644","COUNTRY_CODE":"US","TLE_LINE1":"1 51973U 22025T   23156.59978176  .00000713  00000-0  68068-4 0  9998","ECCENTRICITY":"0.00009650","PERIAPSIS":"549.052","REV_AT_EPOCH":"6898","BSTAR":"0.00006806800000","REF_FRAME":"TEME","MEAN_ELEMENT_THEORY":"SGP4","FILE":"3925751","OBJECT_TYPE":"PAYLOAD","EPHEMERIS_TYPE":"0","NORAD_CAT_ID":"51973","OBJECT_ID":"2022-025T","SEMIMAJOR_AXIS":"6927.855","MEAN_MOTION_DDOT":"0.0000000000000","MEAN_ANOMALY":"266.5998","SITE":"AFETR","OBJECT_NAME":"STARLINK-3679","ELEMENT_SET_NO":"999","GP_ID":"233285938","RA_OF_ASC_NODE":"236.1098","TLE_LINE2":"2 51973  53.0756 236.1098 0000965  93.5102 266.5998 15.05582472 68987","ARG_OF_PERICENTER":"93.5102","EPOCH":"2023-06-05T14:23:41.144064","MEAN_MOTION":"15.05582472","TIME_SYSTEM":"UTC","DECAY_DATE":null,"MEAN_MOTION_DOT":"0.00000713","CENTER_NAME":"EARTH","INCLINATION":"53.0756","RCS_SIZE":"LARGE","CLASSIFICATION_TYPE":"U","LAUNCH_DATE":"2022-03-09"},{"ARG_OF_PERICENTER":"88.7943","MEAN_MOTION":"15.05582287","EPOCH":"2023-06-05T12:21:37.029888","DECAY_DATE":null,"TIME_SYSTEM":"UTC","TLE_LINE2":"2 51974  53.0814 236.4620 0001169  88.7943 271.3180 15.05582287 70055","GP_ID":"233262326","RA_OF_ASC_NODE":"236.4620","ELEMENT_SET_NO":"999","RCS_SIZE":"LARGE","CLASSIFICATION_TYPE":"U","LAUNCH_DATE":"2022-03-09","MEAN_MOTION_DOT":"-0.00000247","CENTER_NAME":"EARTH","INCLINATION":"53.0814","ECCENTRICITY":"0.00011690","TLE_LINE1":"1 51974U 22025U   23156.51501192 -.00000247  00000-0  21876-5 0  9991","PERIOD":"95.644","COUNTRY_CODE":"US","APOAPSIS":"550.531","SEMIMAJOR_AXIS":"6927.856","MEAN_MOTION_DDOT":"0.0000000000000","MEAN_ANOMALY":"271.3180","SITE":"AFETR","OBJECT_NAME":"STARLINK-3672","NORAD_CAT_ID":"51974","OBJECT_ID":"2022-025U","REF_FRAME":"TEME","MEAN_ELEMENT_THEORY":"SGP4","FILE":"3925731","OBJECT_TYPE":"PAYLOAD","EPHEMERIS_TYPE":"0","PERIAPSIS":"548.911","REV_AT_EPOCH":"7005","BSTAR":"0.00000218760000"},{"TLE_LINE2":"2 51975  53.0742 232.8877 0001004  90.3518 269.7588 15.10483035 69020","ARG_OF_PERICENTER":"90.3518","MEAN_MOTION":"15.10483035","EPOCH":"2023-06-05T12:11:10.580640","DECAY_DATE":null,"TIME_SYSTEM":"UTC","ELEMENT_SET_NO":"999","GP_ID":"233258478","RA_OF_ASC_NODE":"232.8877","MEAN_MOTION_DOT":"0.00000020","INCLINATION":"53.0742","CENTER_NAME":"EARTH","RCS_SIZE":"LARGE","CLASSIFICATION_TYPE":"U","LAUNCH_DATE":"2022-03-09","ECCENTRICITY":"0.00010040","TLE_LINE1":"1 51975U 22025V   23156.50776135  .00000020  00000-0  18752-4 0  9998","APOAPSIS":"535.422","PERIOD":"95.334","COUNTRY_CODE":"US","NORAD_CAT_ID":"51975","OBJECT_ID":"2022-025V","MEAN_MOTION_DDOT":"0.0000000000000","SEMIMAJOR_AXIS":"6912.863","MEAN_ANOMALY":"269.7588","SITE":"AFETR","OBJECT_NAME":"STARLINK-3674","REV_AT_EPOCH":"6902","PERIAPSIS":"534.034","BSTAR":"0.00001875200000","REF_FRAME":"TEME","MEAN_ELEMENT_THEORY":"SGP4","FILE":"3925691","OBJECT_TYPE":"PAYLOAD","EPHEMERIS_TYPE":"0"},{"TLE_LINE2":"2 51976  53.2160 244.4175 0000822  87.9422 272.1664 15.08847936 68887","EPOCH":"2023-06-05T15:28:29.593344","MEAN_MOTION":"15.08847936","ARG_OF_PERICENTER":"87.9422","TIME_SYSTEM":"UTC","DECAY_DATE":null,"ELEMENT_SET_NO":"999","GP_ID":"233285187","RA_OF_ASC_NODE":"244.4175","MEAN_MOTION_DOT":"0.00000754","CENTER_NAME":"EARTH","INCLINATION":"53.2160","RCS_SIZE":"LARGE","LAUNCH_DATE":"2022-03-09","CLASSIFICATION_TYPE":"U","ECCENTRICITY":"0.00008220","TLE_LINE1":"1 51976U 22025W   23156.64478696  .00000754  00000-0  65450-4 0  9996","APOAPSIS":"540.290","COUNTRY_CODE":"US","PERIOD":"95.437","NORAD_CAT_ID":"51976","OBJECT_ID":"2022-025W","MEAN_ANOMALY":"272.1664","SEMIMAJOR_AXIS":"6917.856","MEAN_MOTION_DDOT":"0.0000000000000","OBJECT_NAME":"STARLINK-3663","SITE":"AFETR","REV_AT_EPOCH":"6888","PERIAPSIS":"539.152","BSTAR":"0.00006545000000","MEAN_ELEMENT_THEORY":"SGP4","REF_FRAME":"TEME","EPHEMERIS_TYPE":"0","OBJECT_TYPE":"PAYLOAD","FILE":"3925751"},{"NORAD_CAT_ID":"51977","OBJECT_ID":"2022-025X","MEAN_MOTION_DDOT":"0.0000000000000","SEMIMAJOR_AXIS":"6917.851","MEAN_ANOMALY":"275.1369","SITE":"AFETR","OBJECT_NAME":"STARLINK-3660","PERIAPSIS":"539.112","REV_AT_EPOCH":"7023","BSTAR":"0.00011047000000","REF_FRAME":"TEME","MEAN_ELEMENT_THEORY":"SGP4","FILE":"3925724","OBJECT_TYPE":"PAYLOAD","EPHEMERIS_TYPE":"0","TLE_LINE1":"1 51977U 22025X   23156.57670576  .00001471  00000-0  11047-3 0  9999","ECCENTRICITY":"0.00008730","APOAPSIS":"540.320","PERIOD":"95.437","COUNTRY_CODE":"US","MEAN_MOTION_DOT":"0.00001471","CENTER_NAME":"EARTH","INCLINATION":"53.2156","RCS_SIZE":"LARGE","CLASSIFICATION_TYPE":"U","LAUNCH_DATE":"2022-03-09","TLE_LINE2":"2 51977  53.2156 224.7238 0000873  84.9723 275.1369 15.08849540 70231","ARG_OF_PERICENTER":"84.9723","EPOCH":"2023-06-05T13:50:27.377664","MEAN_MOTION":"15.08849540","DECAY_DATE":null,"TIME_SYSTEM":"UTC","ELEMENT_SET_NO":"999","GP_ID":"233262021","RA_OF_ASC_NODE":"224.7238"},{"CENTER_NAME":"EARTH","INCLINATION":"53.2148","MEAN_MOTION_DOT":"0.00004813","LAUNCH_DATE":"2022-03-09","CLASSIFICATION_TYPE":"U","RCS_SIZE":"LARGE","TLE_LINE2":"2 51978  53.2148 244.4836 0000817  92.7406 267.3679 15.08855113 68876","DECAY_DATE":null,"TIME_SYSTEM":"UTC","EPOCH":"2023-06-05T15:12:35.983584","MEAN_MOTION":"15.08855113","ARG_OF_PERICENTER":"92.7406","ELEMENT_SET_NO":"999","RA_OF_ASC_NODE":"244.4836","GP_ID":"233286189","OBJECT_ID":"2022-025Y","NORAD_CAT_ID":"51978","OBJECT_NAME":"STARLINK-3666","SITE":"AFETR","MEAN_ANOMALY":"267.3679","SEMIMAJOR_AXIS":"6917.834","MEAN_MOTION_DDOT":"0.0000000000000","BSTAR":"0.00032015000000","PERIAPSIS":"539.134","REV_AT_EPOCH":"6887","EPHEMERIS_TYPE":"0","FILE":"3925751","OBJECT_TYPE":"PAYLOAD","MEAN_ELEMENT_THEORY":"SGP4","REF_FRAME":"TEME","ECCENTRICITY":"0.00008170","TLE_LINE1":"1 51978U 22025Y   23156.63374981  .00004813  00000-0  32015-3 0  9999","APOAPSIS":"540.264","COUNTRY_CODE":"US","PERIOD":"95.437"},{"MEAN_MOTION_DOT":"0.00001586","CENTER_NAME":"EARTH","INCLINATION":"53.2155","RCS_SIZE":"LARGE","CLASSIFICATION_TYPE":"U","LAUNCH_DATE":"2022-03-09","TLE_LINE2":"2 51979  53.2155 244.3958 0001052  91.0954 269.0159 15.08843444 68888","ARG_OF_PERICENTER":"91.0954","EPOCH":"2023-06-05T15:32:25.548288","MEAN_MOTION":"15.08843444","DECAY_DATE":null,"TIME_SYSTEM":"UTC","ELEMENT_SET_NO":"999","GP_ID":"233285437","RA_OF_ASC_NODE":"244.3958","NORAD_CAT_ID":"51979","OBJECT_ID":"2022-025Z","MEAN_MOTION_DDOT":"0.0000000000000","SEMIMAJOR_AXIS":"6917.870","MEAN_ANOMALY":"269.0159","SITE":"AFETR","OBJECT_NAME":"STARLINK-3656","PERIAPSIS":"539.007","REV_AT_EPOCH":"6888","BSTAR":"0.00011770000000","REF_FRAME":"TEME","MEAN_ELEMENT_THEORY":"SGP4","OBJECT_TYPE":"PAYLOAD","FILE":"3925751","EPHEMERIS_TYPE":"0","TLE_LINE1":"1 51979U 22025Z   23156.64751792  .00001586  00000-0  11770-3 0  9999","ECCENTRICITY":"0.00010520","APOAPSIS":"540.463","PERIOD":"95.437","COUNTRY_CODE":"US"},{"RCS_SIZE":"LARGE","LAUNCH_DATE":"2022-03-09","CLASSIFICATION_TYPE":"U","MEAN_MOTION_DOT":"0.00002023","CENTER_NAME":"EARTH","INCLINATION":"53.2159","EPOCH":"2023-06-05T15:00:37.126080","MEAN_MOTION":"15.08849141","ARG_OF_PERICENTER":"95.2884","DECAY_DATE":null,"TIME_SYSTEM":"UTC","TLE_LINE2":"2 51980  53.2159 244.4980 0000803  95.2884 264.8200 15.08849141 68870","GP_ID":"233285687","RA_OF_ASC_NODE":"244.4980","ELEMENT_SET_NO":"999","MEAN_ANOMALY":"264.8200","SEMIMAJOR_AXIS":"6917.852","MEAN_MOTION_DDOT":"0.0000000000000","OBJECT_NAME":"STARLINK-3649","SITE":"AFETR","NORAD_CAT_ID":"51980","OBJECT_ID":"2022-025AA","MEAN_ELEMENT_THEORY":"SGP4","REF_FRAME":"TEME","EPHEMERIS_TYPE":"0","OBJECT_TYPE":"PAYLOAD","FILE":"3925751","PERIAPSIS":"539.162","REV_AT_EPOCH":"6887","BSTAR":"0.00014513000000","TLE_LINE1":"1 51980U 22025AA  23156.62542970  .00002023  00000-0  14513-3 0  9990","ECCENTRICITY":"0.00008030","COUNTRY_CODE":"US","PERIOD":"95.437","APOAPSIS":"540.273"},{"APOAPSIS":"540.237","PERIOD":"95.437","COUNTRY_CODE":"US","TLE_LINE1":"1 51981U 22025AB  23156.50767275  .00000657  00000-0  59346-4 0  9990","ECCENTRICITY":"0.00007340","REV_AT_EPOCH":"6885","PERIAPSIS":"539.222","BSTAR":"0.00005934600000","REF_FRAME":"TEME","MEAN_ELEMENT_THEORY":"SGP4","OBJECT_TYPE":"PAYLOAD","FILE":"3925691","EPHEMERIS_TYPE":"0","NORAD_CAT_ID":"51981","OBJECT_ID":"2022-025AB","SEMIMAJOR_AXIS":"6917.865","MEAN_MOTION_DDOT":"0.0000000000000","MEAN_ANOMALY":"262.8984","SITE":"AFETR","OBJECT_NAME":"STARLINK-3635","ELEMENT_SET_NO":"999","GP_ID":"233257477","RA_OF_ASC_NODE":"245.0267","TLE_LINE2":"2 51981  53.2159 245.0267 0000734  97.2092 262.8984 15.08845144 68856","ARG_OF_PERICENTER":"97.2092","MEAN_MOTION":"15.08845144","EPOCH":"2023-06-05T12:11:02.925600","DECAY_DATE":null,"TIME_SYSTEM":"UTC","MEAN_MOTION_DOT":"0.00000657","CENTER_NAME":"EARTH","INCLINATION":"53.2159","RCS_SIZE":"LARGE","CLASSIFICATION_TYPE":"U","LAUNCH_DATE":"2022-03-09"}];
